IRIDIUM 113             
1 42803U 17039A   26130.49559205  .00000131  00000+0  39730-4 0  9998
2 42803  86.3974 337.9410 0002195  92.7788 267.3659 14.34217762465786
NORSAT 2                
1 42828U 17042D   26130.47530736  .00006671  00000+0  30208-3 0  9990
2 42828  97.4030 304.5418 0009930 176.5074 183.6233 15.21163943482000
TECHNOSAT               
1 42829U 17042E   26130.41384010  .00001426  00000+0  10518-3 0  9992
2 42829  97.4240 289.5260 0016754 218.9328 141.0693 15.04722341481029
FLYING LAPTOP           
1 42831U 17042G   26130.52057413  .00002575  00000+0  20615-3 0  9996
2 42831  97.4524 287.5483 0017678 251.3216 108.6089 15.00897457480805
WNISAT 1R               
1 42835U 17042L   26130.44347507  .00001903  00000+0  15114-3 0  9999
2 42835  97.4789 287.9275 0010603 294.6342  65.3778 15.01586203480849
LEMUR-2-GREENBERG       
1 42837U 17042N   26130.43280250  .00010143  00000+0  34963-3 0  9990
2 42837  97.3817 311.2709 0010189 134.9237 225.2832 15.30152344482615
LEMUR-2-FURIAUS         
1 42840U 17042R   26130.46437657  .00010170  00000+0  36337-3 0  9999
2 42840  97.3771 309.3448 0007575 188.1052 172.0067 15.29001468482445
CORVUS BC2              
1 42846U 17042X   26130.45931057  .00002608  00000+0  18250-3 0  9998
2 42846  97.4038 293.2912 0011943 237.6832 122.3239 15.06054249481386
CORVUS BC1              
1 42847U 17042Y   26130.39177352  .00002627  00000+0  18298-3 0  9995
2 42847  97.4071 294.0156 0011163 211.5973 148.4586 15.06226152481405
VRSS-2                  
1 42954U 17060A   26130.55832208  .00000866  00000+0  11762-3 0  9992
2 42954  97.6544 169.9758 0015894 219.1665 140.8399 14.81134496462886
MOHAMMED VI-A           
1 43005U 17070A   26130.54644289  .00000330  00000+0  53894-4 0  9999
2 43005  97.9560 203.3925 0001313 102.5453 257.5904 14.77088610458429
FENGYUN 3D              
1 43010U 17072A   26130.51370691 -.00000170  00000+0 -58442-4 0  9995
2 43010  99.0111 104.2607 0002066 125.1644 234.9725 14.19730753439646
NOAA 20 (JPSS-1)        
1 43013U 17073A   26130.50258852  .00000047  00000+0  43240-4 0  9993
2 43013  98.7757  70.3034 0001817  53.5980 306.5363 14.19550571439123
MAKERSAT 0              
1 43016U 17073D   26130.40989506  .00016059  00000+0  45026-3 0  9995
2 43016  97.4681  12.6715 0112145  48.1729 312.9021 15.30488705460681
RADFXSAT (FOX-1B)       
1 43017U 17073E   26130.16410511  .00006061  00000+0  26707-3 0  9991
2 43017  97.4765 358.1701 0154202  99.7936 262.0745 15.12020413459640
JILIN-1 04              
1 43022U 17074A   26130.51150900  .00008705  00000+0  20975-3 0  9998
2 43022  97.4814 239.1581 0003221 350.2932   9.8252 15.41496537468466
JILIN-1 05              
1 43023U 17074B   26130.53733610  .00005674  00000+0  17883-3 0  9992
2 43023  97.4823 236.2085 0005331  18.3864 341.7570 15.33295117468232
JILIN-1 06              
1 43024U 17074C   26130.50664843  .00003875  00000+0  12296-3 0  9995
2 43024  97.4753 233.2289 0007346  25.8181 334.3426 15.33273346468060
IRIDIUM 116             
1 43072U 17083C   26130.53999860  .00000169  00000+0  53392-4 0  9997
2 43072  86.3967 337.7480 0002137  78.4084 281.7351 14.34221121438770
IRIDIUM 130             
1 43073U 17083D   26130.50827773  .00000013  00000+0 -23733-5 0  9994
2 43073  86.3970 338.0326 0002195  81.8484 278.2960 14.34217616438719
LKW-2                   
1 43080U 17084A   26130.52239039  .00007445  00000+0  29348-3 0  9998
2 43080  97.1223 172.0879 0002935  53.5921 306.5588 15.25846262465943
SUPERVIEW-1 03          
1 43099U 18002A   26130.51012715  .00008567  00000+0  22226-3 0  9992
2 43099  97.3125 215.4422 0046654 317.7541  42.0113 15.38112873462571
CARTOSAT-2F             
1 43111U 18004A   26130.46775192  .00003862  00000+0  18675-3 0  9994
2 43111  97.4236 190.4817 0002181  60.3458 299.7993 15.19196872461605
LKW-3                   
1 43146U 18006A   26130.50162887  .00005820  00000+0  17660-3 0  9999
2 43146  97.6581 289.6356 0004127  84.4188 275.7524 15.34516688462935
ASNARO-2                
1 43152U 18007A   26130.52422207  .00005653  00000+0  24756-3 0  9992
2 43152  97.3994 138.0366 0001757  91.4218 268.7220 15.22418794461685
JILIN-1 07              
1 43159U 18008E   26130.52904262  .00005733  00000+0  17592-3 0  9995
2 43159  97.1801 151.4763 0008287 179.8748 180.2499 15.34098630459220
JILIN-1 08              
1 43160U 18008F   26130.50649347  .00004325  00000+0  13709-3 0  9997
2 43160  97.1830 150.8069 0005643 190.1876 169.9253 15.33215720459173
LEMUR-2-KADI            
1 43184U 18014E   26130.34531001  .00236811  00000+0  10571-2 0  9999
2 43184  97.4492  59.3172 0005589 102.9385 257.2509 15.83611069455070
