OBJECT_NAME,OBJECT_ID,EPOCH,MEAN_MOTION,ECCENTRICITY,INCLINATION,RA_OF_ASC_NODE,ARG_OF_PERICENTER,MEAN_ANOMALY,EPHEMERIS_TYPE,CLASSIFICATION_TYPE,NORAD_CAT_ID,ELEMENT_SET_NO,REV_AT_EPOCH,BSTAR,MEAN_MOTION_DOT,MEAN_MOTION_DDOT
IRIDIUM 113,2017-039A,2026-05-10T11:53:39.153120,14.34217762,.0002195,86.3974,337.9410,92.7788,267.3659,0,U,42803,999,46578,.3973E-4,.131E-5,0
NORSAT 2,2017-042D,2026-05-10T11:24:26.555904,15.21163943,.000993,97.4030,304.5418,176.5074,183.6233,0,U,42828,999,48200,.30208E-3,.6671E-4,0
TECHNOSAT,2017-042E,2026-05-10T09:55:55.784640,15.04722341,.0016754,97.4240,289.5260,218.9328,141.0693,0,U,42829,999,48102,.10518E-3,.1426E-4,0
FLYING LAPTOP,2017-042G,2026-05-10T12:29:37.604832,15.00897457,.0017678,97.4524,287.5483,251.3216,108.6089,0,U,42831,999,48080,.20615E-3,.2575E-4,0
WNISAT 1R,2017-042L,2026-05-10T10:38:36.246048,15.01586203,.0010603,97.4789,287.9275,294.6342,65.3778,0,U,42835,999,48084,.15114E-3,.1903E-4,0
LEMUR-2-GREENBERG,2017-042N,2026-05-10T10:23:14.136000,15.30152344,.0010189,97.3817,311.2709,134.9237,225.2832,0,U,42837,999,48261,.34963E-3,.10143E-3,0
LEMUR-2-FURIAUS,2017-042R,2026-05-10T11:08:42.135648,15.29001468,.0007575,97.3771,309.3448,188.1052,172.0067,0,U,42840,999,48244,.36337E-3,.1017E-3,0
CORVUS BC2,2017-042X,2026-05-10T11:01:24.433248,15.06054249,.0011943,97.4038,293.2912,237.6832,122.3239,0,U,42846,999,48138,.1825E-3,.2608E-4,0
CORVUS BC1,2017-042Y,2026-05-10T09:24:09.232128,15.06226152,.0011163,97.4071,294.0156,211.5973,148.4586,0,U,42847,999,48140,.18298E-3,.2627E-4,0
VRSS-2,2017-060A,2026-05-10T13:23:59.027712,14.81134496,.0015894,97.6544,169.9758,219.1665,140.8399,0,U,42954,999,46288,.11762E-3,.866E-5,0
MOHAMMED VI-A,2017-070A,2026-05-10T13:06:52.665696,14.77088610,.0001313,97.9560,203.3925,102.5453,257.5904,0,U,43005,999,45842,.53894E-4,.33E-5,0
FENGYUN 3D,2017-072A,2026-05-10T12:19:44.277024,14.19730753,.0002066,99.0111,104.2607,125.1644,234.9725,0,U,43010,999,43964,-.58442E-4,-.17E-5,0
NOAA 20 (JPSS-1),2017-073A,2026-05-10T12:03:43.648128,14.19550571,.0001817,98.7757,70.3034,53.5980,306.5363,0,U,43013,999,43912,.4324E-4,.47E-6,0
MAKERSAT 0,2017-073D,2026-05-10T09:50:14.933184,15.30488705,.0112145,97.4681,12.6715,48.1729,312.9021,0,U,43016,999,46068,.45026E-3,.16059E-3,0
RADFXSAT (FOX-1B),2017-073E,2026-05-10T03:56:18.681504,15.12020413,.01542027,97.4765,358.1701,99.7936,262.0745,0,U,43017,999,45964,.26707157E-3,.6061E-4,0
JILIN-1 04,2017-074A,2026-05-10T12:16:34.377600,15.41496537,.0003221,97.4814,239.1581,350.2932,9.8252,0,U,43022,999,46846,.20975E-3,.8705E-4,0
JILIN-1 05,2017-074B,2026-05-10T12:53:45.839040,15.33295117,.0005331,97.4823,236.2085,18.3864,341.7570,0,U,43023,999,46823,.17883E-3,.5674E-4,0
JILIN-1 06,2017-074C,2026-05-10T12:09:34.424352,15.33273346,.0007346,97.4753,233.2289,25.8181,334.3426,0,U,43024,999,46806,.12296E-3,.3875E-4,0
IRIDIUM 116,2017-083C,2026-05-10T12:57:35.879040,14.34221121,.0002137,86.3967,337.7480,78.4084,281.7351,0,U,43072,999,43877,.53392E-4,.169E-5,0
IRIDIUM 130,2017-083D,2026-05-10T12:11:55.195872,14.34217616,.0002195,86.3970,338.0326,81.8484,278.2960,0,U,43073,999,43871,-.23733E-5,.13E-6,0
LKW-2,2017-084A,2026-05-10T12:32:14.529696,15.25846262,.0002935,97.1223,172.0879,53.5921,306.5588,0,U,43080,999,46594,.29348E-3,.7445E-4,0
SUPERVIEW-1 03,2018-002A,2026-05-10T12:14:34.985760,15.38112873,.0046654,97.3125,215.4422,317.7541,42.0113,0,U,43099,999,46257,.22226E-3,.8567E-4,0
CARTOSAT-2F,2018-004A,2026-05-10T11:13:33.765888,15.19196872,.0002181,97.4236,190.4817,60.3458,299.7993,0,U,43111,999,46160,.18675E-3,.3862E-4,0
LKW-3,2018-006A,2026-05-10T12:02:20.734368,15.34516688,.0004127,97.6581,289.6356,84.4188,275.7524,0,U,43146,999,46293,.1766E-3,.582E-4,0
ASNARO-2,2018-007A,2026-05-10T12:34:52.786848,15.22418794,.0001757,97.3994,138.0366,91.4218,268.7220,0,U,43152,999,46168,.24756E-3,.5653E-4,0
JILIN-1 07,2018-008E,2026-05-10T12:41:49.282368,15.34098630,.0008287,97.1801,151.4763,179.8748,180.2499,0,U,43159,999,45922,.17592E-3,.5733E-4,0
JILIN-1 08,2018-008F,2026-05-10T12:09:21.035808,15.33215720,.0005643,97.1830,150.8069,190.1876,169.9253,0,U,43160,999,45917,.13709E-3,.4325E-4,0
LEMUR-2-KADI,2018-014E,2026-05-10T08:17:14.784864,15.83611069,.0005589,97.4492,59.3172,102.9385,257.2509,0,U,43184,999,45507,.10571E-2,.236811E-2,0
